OPTICUBE 04             
1 41851U 16067D   24366.47910834  .00007581  00000+0  52954-3 0  9994
2 41851  98.0853 180.2806 0018528 112.4804 247.8385 15.05507167444896
AEROCUBE 8D             
1 41852U 16067E   24366.30976347  .00017119  00000+0  95755-3 0  9992
2 41852  98.1099 187.1817 0004648 150.0989 210.0506 15.13537282445155
AEROCUBE 8C             
1 41853U 16067F   24366.45673737  .00017773  00000+0  99218-3 0  9990
2 41853  98.0924 185.4525 0007726  90.0715 270.1400 15.13583392445163
PROMETHEUS 2-1          
1 41854U 16067G   24366.29813747  .00050410  00000+0  16461-2 0  9993
2 41854  98.0908 196.9219 0009653  92.2536 267.9809 15.31546720445744
PROMETHEUS 2-3          
1 41855U 16067H   24365.84538446  .00053836  00000+0  17645-2 0  9994
2 41855  98.0849 195.7274 0008205 103.1217 257.0938 15.31421636445670
CORVUS BC2              
1 42846U 17042X   24366.42194134  .00009369  00000+0  73890-3 0  9993
2 42846  97.3662 180.9862 0013425 110.3745 249.8924 15.00873902406990
CORVUS BC1              
1 42847U 17042Y   24366.56324860  .00009325  00000+0  73264-3 0  9997
2 42847  97.3673 181.5404 0013051  85.3608 274.9107 15.01025309407035
MIRATA                  
1 43015U 17073C   24366.55025844  .00072345  00000+0  22174-2 0  9993
2 43015  97.5653 250.9414 0123932 299.0006  59.8856 15.26237569386229
MAKERSAT 0              
1 43016U 17073D   24366.40105817  .00034458  00000+0  16211-2 0  9995
2 43016  97.5434 240.7037 0166600 332.8332  26.4250 15.07948323385539
SIRION PATHFINDER-2     
1 43759U 18099B   24366.39748536  .00011361  00000+0  76130-3 0  9992
2 43759  97.5035  57.2553 0009685 344.6799  15.4134 15.07005427332160
CORVUS BC4              
1 43767U 18099K   24366.54992904  .00011999  00000+0  82939-3 0  9999
2 43767  97.4858  53.9234 0010434  38.6647 321.5326 15.05829339332052
MOVE-II                 
1 43780U 18099Y   24366.45811856  .00072528  00000+0  20902-2 0  9996
2 43780  97.4931  69.7204 0004670  15.7371 344.4017 15.35448619332979
SPACEBEE-7              
1 43816U 18099BL  24366.44419382  .00039658  00000+0  16453-2 0  9996
2 43816  97.5222  68.9892 0007126 329.6493  30.4330 15.23725504332314
SPACEBEE-6              
1 43818U 18099BN  24366.48996659  .01035962  00000+0  39313-2 0  9994
2 43818  97.4985  81.4562 0007659 297.1054  62.9434 15.85118495333294
SHIELDS 1               
1 43850U 18104B   24366.32333008  .00037908  00000+0  70008-3 0  9991
2 43850  85.0199 148.3168 0009806  47.4611 312.7472 15.48866923336551
SONATE                  
1 44400U 19038Q   24365.59500696  .00077039  00000+0  12505-2 0  9993
2 44400  97.7111  10.8443 0013743 114.1311 246.1380 15.52367125304345
DUCHIFAT-3              
1 44854U 19089C   24366.16400203  .00051260  00000+0  17103-2 0  9996
2 44854  36.9505 282.2663 0012697 297.8474  62.0991 15.30002165278300
M2 PATHFINDER           
1 45727U 20037E   24366.44010124  .00009096  00000+0  73378-3 0  9998
2 45727  97.7772 182.3437 0011662 161.3691 198.7961 15.00051406245483
NETSAT-4                
1 46504U 20068U   24366.65940408  .00029249  00000+0  12315-2 0  9991
2 46504  97.8295 330.4842 0010494  48.9325 311.2816 15.23271330234147
NETSAT-3                
1 46505U 20068V   24366.33178405  .00023916  00000+0  10337-2 0  9994
2 46505  97.8282 329.3977 0010115  58.3591 301.8630 15.22429284234073
NETSAT-1                
1 46506U 20068W   24366.35524056  .00018274  00000+0  86920-3 0  9997
2 46506  97.8304 328.2272 0009476  68.4610 291.7633 15.19202450233997
NETSAT-2                
1 46507U 20068X   24366.35666202  .00024143  00000+0  10238-2 0  9998
2 46507  97.8282 329.7398 0008759  72.1960 288.0231 15.23086045234046
WILDTRACKCUBE-SIMBA     
1 47941U 21022K   24366.73609535  .00040109  00000+0  12426-2 0  9991
2 47941  97.4404 262.9536 0012303 155.7178 204.4646 15.33259002208603
GRBALPHA                
1 47959U 21022AD  24366.55733100  .00081880  00000+0  16854-2 0  9996
2 47959  97.4393 266.8187 0010638 134.7602 225.4514 15.45589307207661
BEESAT-8                
1 48085U 21022AP  24365.72137096  .00432562  00000+0  29596-2 0  9991
2 48085  97.4765 273.5903 0011434 103.2949 256.9590 15.73466822208230
LEDSAT                  
1 49069U 21073D   24366.67656906  .00058039  00000+0  14512-2 0  9996
2 49069  97.4135  78.0819 0013308 302.7865  57.2098 15.39837446186677
ROBUSTA-1F (MTCUBE 2)   
1 53109U 22080E   24365.35174012 -.00000003  00000+0  00000+0 0  9995
2 53109  70.1231 123.9128 0008380  45.3679 314.7663  6.42584036 57766
SITRO-AIS 5 (KATYS)     
1 57176U 23091L   24366.71812993  .00020656  00000+0  11077-2 0  9998
2 57176  97.5848  57.7334 0016056 159.5607 200.6270 15.14886989 83332
SITRO-AIS 6 (CHIRKIN)   
1 57192U 23091AC  24366.76456908  .00019778  00000+0  10607-2 0  9992
2 57192  97.5849  57.8099 0015881 159.0445 201.1441 15.14894931 83343
SITRO-AIS 8 (ANOKHIN)   
1 57193U 23091AD  24366.79378054  .00023447  00000+0  12267-2 0  9993
2 57193  97.5845  58.0663 0015506 159.1483 201.0385 15.15741473 83368
SITRO-AIS 7 (FARTUSHNIY)
1 57194U 23091AE  24366.77867321  .00021103  00000+0  11344-2 0  9994
2 57194  97.5846  57.7824 0015754 159.6935 200.4926 15.14800127 83340
SITRO-AIS 10 (BURDAEV)  
1 57199U 23091AK  24366.75434384  .00026137  00000+0  12737-2 0  9995
2 57199  97.5862  59.6032 0011433 144.0374 216.1631 15.18259824 83455
SITRO-AIS 9 (SHCHUKIN)  
1 57201U 23091AM  24366.75787636  .00025484  00000+0  12449-2 0  9994
2 57201  97.5857  59.5627 0011365 144.1908 216.0090 15.18180633 83459
SITRO-AIS 12 (SMIRENNIY)
1 57204U 23091AQ  24366.76093634  .00026571  00000+0  12906-2 0  9992
2 57204  97.5866  59.7789 0011407 138.7160 221.4939 15.18370574 83467
SITRO-AIS 11 (SHEFFER)  
1 57208U 23091AU  24366.73134919  .00025547  00000+0  12360-2 0  9991
2 57208  97.5861  59.8018 0011230 139.1858 221.0219 15.18518536 83464
VERONIKA                
1 58261U 23174F   24366.64654738  .00070708  00000+0  18347-2 0  9999
2 58261  97.4381  81.5053 0008038 262.9220  97.1111 15.38701768 63870
ROBUSTA-1E (ENSO)       
1 58470U 23185J   24366.73268483  .00055567  00000+0  15004-2 0  9994
2 58470  97.4000  72.8522 0008648 300.9580  59.0814 15.37536995 60335
SITRO-AIS 29            
1 59052U 24039B   24366.58565349  .00092675  00000+0  16363-2 0  9994
2 59052  97.4106 329.8502 0008250 209.4482 150.6305 15.50003931 46910
SITRO-AIS 30            
1 59053U 24039C   24366.74815029  .00089769  00000+0  16197-2 0  9991
2 59053  97.4105 329.9325 0008506 211.7307 148.3433 15.49395409 46929
SITRO-AIS 31            
1 59054U 24039D   24366.77233039  .00095136  00000+0  16854-2 0  9995
2 59054  97.4106 330.0527 0008261 212.0110 148.0641 15.49898929 46958
SITRO-AIS 33            
1 59055U 24039E   24366.74867192  .00097706  00000+0  17221-2 0  9990
2 59055  97.4105 330.0977 0007993 209.8662 150.2134 15.50036748 46940
SITRO-AIS 35            
1 59056U 24039F   24366.74133801  .00095104  00000+0  16721-2 0  9998
2 59056  97.4105 330.1013 0007901 212.0579 148.0192 15.50117883 46944
SITRO-AIS 32            
1 59057U 24039G   24366.77669334  .00094301  00000+0  16844-2 0  9991
2 59057  97.4111 330.0633 0008139 212.4309 147.6443 15.49668914 46946
SITRO-AIS 34            
1 59058U 24039H   24366.74818714  .00091045  00000+0  16072-2 0  9992
2 59058  97.4107 330.1004 0007940 210.1429 149.9366 15.50018806 46942
SITRO-AIS 36            
1 59059U 24039J   24366.72600284  .00090318  00000+0  15903-2 0  9996
2 59059  97.4099 330.1238 0007651 210.7967 149.2836 15.50096710 46949
SITRO-AIS 49            
1 59060U 24039K   24366.74857265  .00093431  00000+0  16663-2 0  9996
2 59060  97.4108 330.0984 0007993 211.3196 148.7580 15.49717337 46942
SITRO-AIS 50            
1 59061U 24039L   24366.75569078  .00098556  00000+0  17052-2 0  9996
2 59061  97.4099 330.2346 0007582 206.8447 153.2413 15.50563025 46950
SITRO-AIS 51            
1 59062U 24039M   24366.75154427  .00100962  00000+0  17342-2 0  9992
2 59062  97.4098 330.2369 0007556 206.5822 153.5044 15.50759245 46954
SITRO-AIS 52            
1 59063U 24039N   24366.73243111  .00097812  00000+0  16789-2 0  9993
2 59063  97.4104 330.2685 0007384 209.1011 150.9830 15.50792931 46955
SITRO-AIS 25            
1 59066U 24039R   24366.75306526  .00011441  00000+0  10108-2 0  9991
2 59066  95.3846 231.3612 0162842  22.1973 338.6193 14.86715445 45421
SITRO-AIS 26            
1 59067U 24039S   24366.76353777  .00011522  00000+0  10210-2 0  9997
2 59067  95.3846 231.3511 0163029  22.2828 338.5372 14.86582228 45427
SITRO-AIS 27            
1 59068U 24039T   24366.72456651  .00011289  00000+0  99461-3 0  9995
2 59068  95.3850 231.3936 0162399  22.0517 338.7587 14.86868162 45420
SITRO-AIS 28            
1 59071U 24039U   24366.78329785  .00012283  00000+0  10812-2 0  9999
2 59071  95.3852 231.4506 0162216  21.7994 339.0027 14.86909277 45430
GRBBETA                 
1 60237U 24128C   24366.17306380  .00011855  00000+0  94865-3 0  9998
2 60237  61.9942 277.8331 0033539  19.0771 341.1566 15.00129076 26117
OOV-CUBE (TUBSAT-30)    
1 60240U 24128F   24366.75493607  .00008451  00000+0  70944-3 0  9995
2 60240  61.9981 276.8257 0031891  14.7576 345.4436 14.98608346 26193
ROBUSTA-3A (MEDITERRAN*)
1 60243U 24128J   24365.75373882  .00021396  00000+0  16749-2 0  9994
2 60243  61.9910 279.6135 0031607   9.7768 350.3930 15.00669781 26059
